IRIDIUM 33 DEB          
1 34103U 97051DN  17345.82555192  .00002334  00000-0  54566-3 0  9991
2 34103  86.3500 185.8903 0026779 161.0132 327.1979 14.54065728463816
